{"epoch":1784710044,"count":18256,"objects":[{"id":"38041","name":"GLOBALSTAR M080","type":"PAYLOAD","l1":"1 38041U 11080B   26202.62444278 -.00000092  00000-0  66805-4 0  9996","l2":"2 38041  52.0056 274.1764 0000299  67.6103  79.2348 12.62257650673230"},{"id":"38042","name":"GLOBALSTAR M082","type":"PAYLOAD","l1":"1 38042U 11080C   26202.48647069 -.00000096  00000-0  45310-4 0  9996","l2":"2 38042  52.0052 230.0995 0000205  52.5721 117.0966 12.62264358673926"},{"id":"38043","name":"GLOBALSTAR M092","type":"PAYLOAD","l1":"1 38043U 11080D   26202.58419171 -.00000086  00000-0  99163-4 0  9993","l2":"2 38043  52.0106 320.2003 0000726 113.0407 260.3387 12.62267964672396"},{"id":"38044","name":"GLOBALSTAR M090","type":"PAYLOAD","l1":"1 38044U 11080E   26202.51193994 -.00000094  00000-0  56553-4 0  9994","l2":"2 38044  52.0096 223.9885 0000387  79.9481  84.4062 12.62269636674044"},{"id":"38045","name":"GLOBALSTAR M086","type":"PAYLOAD","l1":"1 38045U 11080F   26202.45000521 -.00000101  00000-0  16429-4 0  9998","l2":"2 38045  51.9870 224.0497 0001407 120.4881  26.4341 12.62287850673980"},{"id":"39072","name":"GLOBALSTAR M097","type":"PAYLOAD","l1":"1 39072U 13005A   26202.13282926 -.00000117  00000-0 -71786-4 0  9999","l2":"2 39072  52.0040 140.0015 0000549  45.3552 314.7359 12.62271304621196"},{"id":"39073","name":"GLOBALSTAR M093","type":"PAYLOAD","l1":"1 39073U 13005B   26202.18527251 -.00000088  00000-0  87812-4 0  9991","l2":"2 39073  52.0099 133.2020 0000787  52.8070 307.2868 12.62266403621155"},{"id":"39074","name":"GLOBALSTAR M094","type":"PAYLOAD","l1":"1 39074U 13005C   26202.58105442 -.00000104  00000-0 -31450-5 0  9998","l2":"2 39074  51.9969  46.0800 0001041  74.0918 286.0063 12.62264280622814"},{"id":"39075","name":"GLOBALSTAR M096","type":"PAYLOAD","l1":"1 39075U 13005D   26201.96110393 -.00000088  00000-0  86627-4 0  9996","l2":"2 39075  52.0076  96.7960 0000838  52.9453 307.1491 12.62265888621653"},{"id":"39076","name":"GLOBALSTAR M078","type":"PAYLOAD","l1":"1 39076U 13005E   26202.33017300 -.00000095  00000-0  48065-4 0  9995","l2":"2 39076  51.9848 179.6352 0000980 355.0104   5.0753 12.62260109620322"},{"id":"39077","name":"GLOBALSTAR M095","type":"PAYLOAD","l1":"1 39077U 13005F   26202.11928651 -.00000094  00000-0  51809-4 0  9991","l2":"2 39077  52.0055 177.9288 0000594  23.2482 336.8412 12.62264122620155"},{"id":"52888","name":"GLOBALSTAR M087","type":"PAYLOAD","l1":"1 52888U 22064A   26202.36992407 -.00000089  00000-0  83578-4 0  9990","l2":"2 52888  52.0016 318.3861 0000887  92.4619 267.6349 12.62269474195455"}]}