{"fetched_at":"2026-07-22T07:09:16.996Z","source":"https://celestrak.org/NORAD/elements/gp.php?GROUP=globalstar&FORMAT=JSON","constellation":"globalstar","records":[{"OBJECT_NAME":"GLOBALSTAR M080","OBJECT_ID":"2011-080B","EPOCH":"2026-07-21T14:59:11.856192","CLASSIFICATION_TYPE":"U","MEAN_MOTION":12.6225765,"ECCENTRICITY":0.00002989,"INCLINATION":52.0056,"RA_OF_ASC_NODE":274.1764,"ARG_OF_PERICENTER":67.6103,"MEAN_ANOMALY":79.2348,"EPHEMERIS_TYPE":0,"NORAD_CAT_ID":38041,"ELEMENT_SET_NO":999,"REV_AT_EPOCH":67323,"BSTAR":0.000066804514,"MEAN_MOTION_DOT":-9.2e-7,"MEAN_MOTION_DDOT":0},{"OBJECT_NAME":"GLOBALSTAR M082","OBJECT_ID":"2011-080C","EPOCH":"2026-07-21T11:40:31.067616","CLASSIFICATION_TYPE":"U","MEAN_MOTION":12.62264358,"ECCENTRICITY":0.0000205,"INCLINATION":52.0052,"RA_OF_ASC_NODE":230.0995,"ARG_OF_PERICENTER":52.5721,"MEAN_ANOMALY":117.0966,"EPHEMERIS_TYPE":0,"NORAD_CAT_ID":38042,"ELEMENT_SET_NO":999,"REV_AT_EPOCH":67392,"BSTAR":0.00004531021,"MEAN_MOTION_DOT":-9.6e-7,"MEAN_MOTION_DDOT":0},{"OBJECT_NAME":"GLOBALSTAR M092","OBJECT_ID":"2011-080D","EPOCH":"2026-07-21T14:01:14.163744","CLASSIFICATION_TYPE":"U","MEAN_MOTION":12.62267964,"ECCENTRICITY":0.00007256,"INCLINATION":52.0106,"RA_OF_ASC_NODE":320.2003,"ARG_OF_PERICENTER":113.0407,"MEAN_ANOMALY":260.3387,"EPHEMERIS_TYPE":0,"NORAD_CAT_ID":38043,"ELEMENT_SET_NO":999,"REV_AT_EPOCH":67239,"BSTAR":0.000099162793,"MEAN_MOTION_DOT":-8.6e-7,"MEAN_MOTION_DDOT":0},{"OBJECT_NAME":"GLOBALSTAR M090","OBJECT_ID":"2011-080E","EPOCH":"2026-07-21T12:17:11.610816","CLASSIFICATION_TYPE":"U","MEAN_MOTION":12.62269636,"ECCENTRICITY":0.00003873,"INCLINATION":52.0096,"RA_OF_ASC_NODE":223.9885,"ARG_OF_PERICENTER":79.9481,"MEAN_ANOMALY":84.4062,"EPHEMERIS_TYPE":0,"NORAD_CAT_ID":38044,"ELEMENT_SET_NO":999,"REV_AT_EPOCH":67404,"BSTAR":0.000056552542,"MEAN_MOTION_DOT":-9.4e-7,"MEAN_MOTION_DDOT":0},{"OBJECT_NAME":"GLOBALSTAR M086","OBJECT_ID":"2011-080F","EPOCH":"2026-07-21T10:48:00.450144","CLASSIFICATION_TYPE":"U","MEAN_MOTION":12.6228785,"ECCENTRICITY":0.0001407,"INCLINATION":51.987,"RA_OF_ASC_NODE":224.0497,"ARG_OF_PERICENTER":120.4881,"MEAN_ANOMALY":26.4341,"EPHEMERIS_TYPE":0,"NORAD_CAT_ID":38045,"ELEMENT_SET_NO":999,"REV_AT_EPOCH":67398,"BSTAR":0.00001642932,"MEAN_MOTION_DOT":-0.00000101,"MEAN_MOTION_DDOT":0},{"OBJECT_NAME":"GLOBALSTAR M097","OBJECT_ID":"2013-005A","EPOCH":"2026-07-21T03:11:16.448064","CLASSIFICATION_TYPE":"U","MEAN_MOTION":12.62271304,"ECCENTRICITY":0.00005491,"INCLINATION":52.004,"RA_OF_ASC_NODE":140.0015,"ARG_OF_PERICENTER":45.3552,"MEAN_ANOMALY":314.7359,"EPHEMERIS_TYPE":0,"NORAD_CAT_ID":39072,"ELEMENT_SET_NO":999,"REV_AT_EPOCH":62119,"BSTAR":-0.000071785515,"MEAN_MOTION_DOT":-0.00000117,"MEAN_MOTION_DDOT":0},{"OBJECT_NAME":"GLOBALSTAR M093","OBJECT_ID":"2013-005B","EPOCH":"2026-07-21T04:26:47.544864","CLASSIFICATION_TYPE":"U","MEAN_MOTION":12.62266403,"ECCENTRICITY":0.00007867,"INCLINATION":52.0099,"RA_OF_ASC_NODE":133.202,"ARG_OF_PERICENTER":52.807,"MEAN_ANOMALY":307.2868,"EPHEMERIS_TYPE":0,"NORAD_CAT_ID":39073,"ELEMENT_SET_NO":999,"REV_AT_EPOCH":62115,"BSTAR":0.000087812017,"MEAN_MOTION_DOT":-8.8e-7,"MEAN_MOTION_DDOT":0},{"OBJECT_NAME":"GLOBALSTAR M094","OBJECT_ID":"2013-005C","EPOCH":"2026-07-21T13:56:43.101888","CLASSIFICATION_TYPE":"U","MEAN_MOTION":12.6226428,"ECCENTRICITY":0.0001041,"INCLINATION":51.9969,"RA_OF_ASC_NODE":46.08,"ARG_OF_PERICENTER":74.0918,"MEAN_ANOMALY":286.0063,"EPHEMERIS_TYPE":0,"NORAD_CAT_ID":39074,"ELEMENT_SET_NO":999,"REV_AT_EPOCH":62281,"BSTAR":-0.000003144983,"MEAN_MOTION_DOT":-0.00000104,"MEAN_MOTION_DDOT":0},{"OBJECT_NAME":"GLOBALSTAR M096","OBJECT_ID":"2013-005D","EPOCH":"2026-07-20T23:03:59.379552","CLASSIFICATION_TYPE":"U","MEAN_MOTION":12.62265888,"ECCENTRICITY":0.00008383,"INCLINATION":52.0076,"RA_OF_ASC_NODE":96.796,"ARG_OF_PERICENTER":52.9453,"MEAN_ANOMALY":307.1491,"EPHEMERIS_TYPE":0,"NORAD_CAT_ID":39075,"ELEMENT_SET_NO":999,"REV_AT_EPOCH":62165,"BSTAR":0.000086627167,"MEAN_MOTION_DOT":-8.8e-7,"MEAN_MOTION_DDOT":0},{"OBJECT_NAME":"GLOBALSTAR M078","OBJECT_ID":"2013-005E","EPOCH":"2026-07-21T07:55:26.947200","CLASSIFICATION_TYPE":"U","MEAN_MOTION":12.62260109,"ECCENTRICITY":0.00009799,"INCLINATION":51.9848,"RA_OF_ASC_NODE":179.6352,"ARG_OF_PERICENTER":355.0104,"MEAN_ANOMALY":5.0753,"EPHEMERIS_TYPE":0,"NORAD_CAT_ID":39076,"ELEMENT_SET_NO":999,"REV_AT_EPOCH":62032,"BSTAR":0.000048065192,"MEAN_MOTION_DOT":-9.5e-7,"MEAN_MOTION_DDOT":0},{"OBJECT_NAME":"GLOBALSTAR M095","OBJECT_ID":"2013-005F","EPOCH":"2026-07-21T02:51:46.354464","CLASSIFICATION_TYPE":"U","MEAN_MOTION":12.62264122,"ECCENTRICITY":0.00005938,"INCLINATION":52.0055,"RA_OF_ASC_NODE":177.9288,"ARG_OF_PERICENTER":23.2482,"MEAN_ANOMALY":336.8412,"EPHEMERIS_TYPE":0,"NORAD_CAT_ID":39077,"ELEMENT_SET_NO":999,"REV_AT_EPOCH":62015,"BSTAR":0.000051808531,"MEAN_MOTION_DOT":-9.4e-7,"MEAN_MOTION_DDOT":0},{"OBJECT_NAME":"GLOBALSTAR M087","OBJECT_ID":"2022-064A","EPOCH":"2026-07-21T08:52:41.439648","CLASSIFICATION_TYPE":"U","MEAN_MOTION":12.62269474,"ECCENTRICITY":0.00008867,"INCLINATION":52.0016,"RA_OF_ASC_NODE":318.3861,"ARG_OF_PERICENTER":92.4619,"MEAN_ANOMALY":267.6349,"EPHEMERIS_TYPE":0,"NORAD_CAT_ID":52888,"ELEMENT_SET_NO":999,"REV_AT_EPOCH":19545,"BSTAR":0.000083577906,"MEAN_MOTION_DOT":-8.9e-7,"MEAN_MOTION_DDOT":0}]}
